COSMOS 2426 (717)       
1 29671U 06062B   19124.64666866 -.00000000  00000-0  10000-3 0  9999
2 29671  65.1434 281.7650 0017811 159.0422 141.9623  2.13102937 96166
COSMOS 2433 (720)       
1 32275U 07052A   19125.11056594 -.00000046  00000-0  10000-3 0  9997
2 32275  65.8347  42.5788 0003694 287.8527 345.4945  2.13104380 89686
COSMOS 2432 (719)       
1 32276U 07052B   19124.51881346 -.00000049  00000-0  10000-3 0  9995
2 32276  65.8463  42.6799 0012646 332.5368 158.0253  2.13103862 89670
COSMOS 2434 (721)       
1 32393U 07065A   19124.93728148  .00000001  00000-0  00000-0 0  9998
2 32393  64.7428 280.4730 0005330  97.8656 290.0141  2.13102999 88390
COSMOS 2436 (723)       
1 32395U 07065C   19124.59425895 -.00000001  00000-0  10000-3 0  9990
2 32395  64.7523 280.5381 0016375   6.6750 170.1124  2.13104332 88319
COSMOS 2456 (730)       
1 36111U 09070A   19125.04639525  .00000095  00000-0  00000+0 0  9993
2 36111  64.1961 160.1011 0005982 304.6483 339.9164  2.13102882 73050
COSMOS 2457 (733)       
1 36112U 09070B   19125.37956694  .00000094  00000-0  00000+0 0  9998
2 36112  64.1796 159.9945 0005295 189.0618 116.3883  2.13101513 73067
COSMOS 2459 (731)       
1 36400U 10007A   19125.21460440 -.00000046  00000-0  10000-3 0  9995
2 36400  65.7412  41.5976 0028024 349.9443 219.5263  2.13102197 71411
COSMOS 2461 (735)       
1 36401U 10007B   19125.45064748 -.00000045  00000-0  10000-3 0  9992
2 36401  65.7337  41.5619 0007330  49.7588 251.3287  2.13102215 71415
COSMOS 2460 (732)       
1 36402U 10007C   19124.92011285 -.00000048  00000-0  10000-3 0  9995
2 36402  65.7233  41.5436 0002053 340.0652 314.0019  2.13101470 71405
COSMOS 2464 (736)       
1 37139U 10041C   19124.68706760 -.00000002  00000-0  00000-0 0  9999
2 37139  64.3439 280.1245 0025600  15.9514  46.5734  2.13100722 67475
COSMOS 2474 (742)       
1 37829U 11055A   19124.77544683  .00000096  00000-0  00000+0 0  9996
2 37829  64.5187 160.9636 0010444 251.4246  41.9229  2.13101899 59049
COSMOS 2476 (744)       
1 37867U 11064A   19124.64993186  .00000096  00000-0  00000+0 0  9990
2 37867  64.4981 161.0222 0020420 243.3139 359.8718  2.13101953 58393
COSMOS 2477 (745)       
1 37868U 11064B   19125.12726117  .00000095  00000-0  00000+0 0  9992
2 37868  64.5070 161.0569 0018149 244.9493 183.1350  2.13101742 58366
COSMOS 2475 (743)       
1 37869U 11064C   19124.33177684  .00000097  00000-0  00000-0 0  9997
2 37869  64.5145 161.0834 0022561 265.8793 228.9657  2.13101974 58357
COSMOS 2485 (747)       
1 39155U 13019A   19124.50510385  .00000097  00000-0  00000+0 0  9996
2 39155  64.6675 161.2057 0020898 238.8626 297.9593  2.13101935 46866
COSMOS 2492 (754)       
1 39620U 14012A   19125.40847001 -.00000045  00000-0  10000-3 0  9994
2 39620  65.6134  41.3676 0015847 328.5884 216.3301  2.13103314 39834
COSMOS 2500 (755)       
1 40001U 14032A   19124.91542734 -.00000048  00000-0  00000+0 0  9999
2 40001  65.5544  41.3294 0005049 224.1619 164.0316  2.13102717 38042
COSMOS 2501 (702K)      
1 40315U 14075A   19125.20668251  .00000001  00000-0  00000+0 0  9998
2 40315  64.0634 281.2043 0015107 203.1322 206.8704  2.13098592 34457
COSMOS 2514 (751)       
1 41330U 16008A   19125.25102154 -.00000047  00000-0  00000+0 0  9995
2 41330  65.3577  41.2925 0008689 227.3827 239.8618  2.13103128 25219
COSMOS 2516 (753)       
1 41554U 16032A   19124.73875191 -.00000001  00000-0  00000-0 0  9991
2 41554  64.2886 281.1763 0010837 211.4336 113.4374  2.13101654 22800
COSMOS 2522 (752)       
1 42939U 17055A   19124.76991464 -.00000001  00000-0  00000+0 0  9999
2 42939  64.5185 281.2357 0005432 242.0510 333.2201  2.13101867 12561
COSMOS 2527 (756)       
1 43508U 18053A   19125.34979762  .00000095  00000-0  00000+0 0  9995
2 43508  64.8328 160.9397 0008749 242.4387  88.7966  2.13102657  6867
COSMOS 2529 (757)       
1 43687U 18086A   19124.62442910 -.00000001  00000-0  00000+0 0  9997
2 43687  64.7325 281.2493 0007976 275.4817 143.8893  2.13101965  3871
